NUSHSAT1                
1 63211U 25052B   26068.64700493  .00023034  00000+0  74857-3 0  9997
2 63211  97.4095 325.7239 0005501  84.7512 275.4357 15.31903202 54882
STARLINK-35508          
1 65912U 25225C   26068.54616619  .00024218  00000+0  82749-3 0  9998
2 65912  53.1584 166.5253 0001090 112.1029 248.0088 15.30186433 24386
